{"type": "FeatureCollection", "features": [ {"type": "Feature", "properties": {"norad_id": 37689, "name": "FENGYUN 1C DEB", "group": "fengyun-1c-debris", "lat": 1.4506177671308333, "lon": -150.13572286333184, "alt_km": 724.3781999011471, "timestamp": "2025-12-14T14:39:29.659925+00:00", "meta": {"OBJECT_NAME": "FENGYUN 1C DEB", "OBJECT_ID": "1999-025ELE", "EPOCH": "2025-12-12T02:09:35.469504", "MEAN_MOTION": 14.48626906, "ECCENTRICITY": 0.00208176, "INCLINATION": 98.92, "RA_OF_ASC_NODE": 26.9753, "ARG_OF_PERICENTER": 242.0212, "MEAN_ANOMALY": 117.8873, "EPHEMERIS_TYPE": 0, "CLASSIFICATION_TYPE": "U", "NORAD_CAT_ID": 37689, "ELEMENT_SET_NO": 999, "REV_AT_EPOCH": 57803, "BSTAR": 0.0037418292, "MEAN_MOTION_DOT": 0.00014096, "MEAN_MOTION_DDOT": 0}, "tle": {"line1": "1 37689U 99025ELE 25346.08999386  .00014096  00000+0  37418-2 0  9994", "line2": "2 37689  98.9200  26.9753 0020817 242.0212 117.8873 14.48626906578030"}}, "geometry": {"type": "Point", "coordinates": [-150.13572286333184, 1.4506177671308333]}}, {"type": "Feature", "properties": {"norad_id": 37691, "name": "FENGYUN 1C DEB", "group": "fengyun-1c-debris", "lat": -28.668846158111137, "lon": -103.07285388874308, "alt_km": 903.4311591657352, "timestamp": "2025-12-14T14:39:29.659935+00:00", "meta": {"OBJECT_NAME": "FENGYUN 1C DEB", "OBJECT_ID": "1999-025ELG", "EPOCH": "2025-12-13T23:58:15.745440", "MEAN_MOTION": 14.57697258, "ECCENTRICITY": 0.02804214, "INCLINATION": 98.3721, "RA_OF_ASC_NODE": 251.6921, "ARG_OF_PERICENTER": 146.1344, "MEAN_ANOMALY": 215.8119, "EPHEMERIS_TYPE": 0, "CLASSIFICATION_TYPE": "U", "NORAD_CAT_ID": 37691, "ELEMENT_SET_NO": 999, "REV_AT_EPOCH": 85652, "BSTAR": 0.0017513521, "MEAN_MOTION_DOT": 0.00013755, "MEAN_MOTION_DDOT": 0}, "tle": {"line1": "1 37691U 99025ELG 25347.99879335  .00013755  00000+0  17514-2 0  9995", "line2": "2 37691  98.3721 251.6921 0280421 146.1344 215.8119 14.57697258856521"}}, "geometry": {"type": "Point", "coordinates": [-103.07285388874308, -28.668846158111137]}}, {"type": "Feature", "properties": {"norad_id": 37693, "name": "FENGYUN 1C DEB", "group": "fengyun-1c-debris", "lat": 66.90803442116926, "lon": -32.688854966899555, "alt_km": 805.534711240718, "timestamp": "2025-12-14T14:39:29.659945+00:00", "meta": {"OBJECT_NAME": "FENGYUN 1C DEB", "OBJECT_ID": "1999-025ELJ", "EPOCH": "2025-12-13T23:07:59.169792", "MEAN_MOTION": 14.08487273, "ECCENTRICITY": 0.00724308, "INCLINATION": 98.6916, "RA_OF_ASC_NODE": 347.7123, "ARG_OF_PERICENTER": 71.3579, "MEAN_ANOMALY": 319.0038, "EPHEMERIS_TYPE": 0, "CLASSIFICATION_TYPE": "U", "NORAD_CAT_ID": 37693, "ELEMENT_SET_NO": 999, "REV_AT_EPOCH": 62166, "BSTAR": 0.00074206871, "MEAN_MOTION_DOT": 1.263e-05, "MEAN_MOTION_DDOT": 0}, "tle": {"line1": "1 37693U 99025ELJ 25347.96387928  .00001263  00000+0  74207-3 0  9990", "line2": "2 37693  98.6916 347.7123 0072430  71.3579 319.0038 14.08487273621663"}}, "geometry": {"type": "Point", "coordinates": [-32.688854966899555, 66.90803442116926]}}, {"type": "Feature", "properties": {"norad_id": 37694, "name": "FENGYUN 1C DEB", "group": "fengyun-1c-debris", "lat": -34.68837963983411, "lon": -129.65033208483356, "alt_km": 905.715526817813, "timestamp": "2025-12-14T14:39:29.659955+00:00", "meta": {"OBJECT_NAME": "FENGYUN 1C DEB", "OBJECT_ID": "1999-025ELK", "EPOCH": "2025-12-13T00:55:31.373184", "MEAN_MOTION": 14.16656158, "ECCENTRICITY": 0.01474372, "INCLINATION": 98.1986, "RA_OF_ASC_NODE": 54.6268, "ARG_OF_PERICENTER": 92.6483, "MEAN_ANOMALY": 27.3421, "EPHEMERIS_TYPE": 0, "CLASSIFICATION_TYPE": "U", "NORAD_CAT_ID": 37694, "ELEMENT_SET_NO": 999, "REV_AT_EPOCH": 51708, "BSTAR": 0.0023714374, "MEAN_MOTION_DOT": 5.231e-05, "MEAN_MOTION_DDOT": 0}, "tle": {"line1": "1 37694U 99025ELK 25347.03855756  .00005231  00000+0  23714-2 0  9993", "line2": "2 37694  98.1986  54.6268 0147437  92.6483  27.3421 14.16656158517084"}}, "geometry": {"type": "Point", "coordinates": [-129.65033208483356, -34.68837963983411]}}, {"type": "Feature", "properties": {"norad_id": 37695, "name": "FENGYUN 1C DEB", "group": "fengyun-1c-debris", "lat": 56.02806502734459, "lon": -135.97849540233312, "alt_km": 1237.0685170678234, "timestamp": "2025-12-14T14:39:29.659966+00:00", "meta": {"OBJECT_NAME": "FENGYUN 1C DEB", "OBJECT_ID": "1999-025ELL", "EPOCH": "2025-12-05T21:35:58.305696", "MEAN_MOTION": 13.64964142, "ECCENTRICITY": 0.04651514, "INCLINATION": 98.2113, "RA_OF_ASC_NODE": 24.2422, "ARG_OF_PERICENTER": 279.1549, "MEAN_ANOMALY": 266.6228, "EPHEMERIS_TYPE": 0, "CLASSIFICATION_TYPE": "U", "NORAD_CAT_ID": 37695, "ELEMENT_SET_NO": 999, "REV_AT_EPOCH": 89158, "BSTAR": 0.001955193, "MEAN_MOTION_DOT": 3.282e-05, "MEAN_MOTION_DDOT": 0}, "tle": {"line1": "1 37695U 99025ELL 25339.89998039  .00003282  00000+0  19552-2 0  9990", "line2": "2 37695  98.2113  24.2422 0465151 279.1549 266.6228 13.64964142891584"}}, "geometry": {"type": "Point", "coordinates": [-135.97849540233312, 56.02806502734459]}}, {"type": "Feature", "properties": {"norad_id": 37704, "name": "FENGYUN 1C DEB", "group": "fengyun-1c-debris", "lat": 49.707845475189536, "lon": 11.444335215244115, "alt_km": 864.6031652723805, "timestamp": "2025-12-14T14:39:29.659976+00:00", "meta": {"OBJECT_NAME": "FENGYUN 1C DEB", "OBJECT_ID": "1999-025ELV", "EPOCH": "2025-12-10T18:58:47.253216", "MEAN_MOTION": 13.70500661, "ECCENTRICITY": 0.02401356, "INCLINATION": 98.3199, "RA_OF_ASC_NODE": 178.1952, "ARG_OF_PERICENTER": 184.1814, "MEAN_ANOMALY": 190.5574, "EPHEMERIS_TYPE": 0, "CLASSIFICATION_TYPE": "U", "NORAD_CAT_ID": 37704, "ELEMENT_SET_NO": 999, "REV_AT_EPOCH": 62338, "BSTAR": 0.0019314833, "MEAN_MOTION_DOT": 2.062e-05, "MEAN_MOTION_DDOT": 0}, "tle": {"line1": "1 37704U 99025ELV 25344.79082469  .00002062  00000+0  19315-2 0  9999", "line2": "2 37704  98.3199 178.1952 0240135 184.1814 190.5574 13.70500661623389"}}, "geometry": {"type": "Point", "coordinates": [11.444335215244115, 49.707845475189536]}}, {"type": "Feature", "properties": {"norad_id": 37707, "name": "FENGYUN 1C DEB", "group": "fengyun-1c-debris", "lat": 79.12884738041026, "lon": -117.00598255621368, "alt_km": 666.5171801321103, "timestamp": "2025-12-14T14:39:29.659986+00:00", "meta": {"OBJECT_NAME": "FENGYUN 1C DEB", "OBJECT_ID": "1999-025ELY", "EPOCH": "2025-12-10T18:43:33.805632", "MEAN_MOTION": 14.56419788, "ECCENTRICITY": 0.01436989, "INCLINATION": 100.2215, "RA_OF_ASC_NODE": 348.3329, "ARG_OF_PERICENTER": 31.5927, "MEAN_ANOMALY": 147.6034, "EPHEMERIS_TYPE": 0, "CLASSIFICATION_TYPE": "U", "NORAD_CAT_ID": 37707, "ELEMENT_SET_NO": 999, "REV_AT_EPOCH": 85537, "BSTAR": 0.0011022748, "MEAN_MOTION_DOT": 5.562e-05, "MEAN_MOTION_DDOT": 0}, "tle": {"line1": "1 37707U 99025ELY 25344.78025238  .00005562  00000+0  11023-2 0  9998", "line2": "2 37707 100.2215 348.3329 0143698  31.5927 147.6034 14.56419788855373"}}, "geometry": {"type": "Point", "coordinates": [-117.00598255621368, 79.12884738041026]}}, {"type": "Feature", "properties": {"norad_id": 37712, "name": "FENGYUN 1C DEB", "group": "fengyun-1c-debris", "lat": 13.345812877071554, "lon": -50.219629149241406, "alt_km": 827.9352651756972, "timestamp": "2025-12-14T14:39:29.659996+00:00", "meta": {"OBJECT_NAME": "FENGYUN 1C DEB", "OBJECT_ID": "1999-025EMD", "EPOCH": "2025-12-13T03:36:15.433632", "MEAN_MOTION": 14.36430544, "ECCENTRICITY": 0.00791937, "INCLINATION": 98.8182, "RA_OF_ASC_NODE": 126.1751, "ARG_OF_PERICENTER": 352.3974, "MEAN_ANOMALY": 185.3639, "EPHEMERIS_TYPE": 0, "CLASSIFICATION_TYPE": "U", "NORAD_CAT_ID": 37712, "ELEMENT_SET_NO": 999, "REV_AT_EPOCH": 63966, "BSTAR": 0.00060059205, "MEAN_MOTION_DOT": 1.777e-05, "MEAN_MOTION_DDOT": 0}, "tle": {"line1": "1 37712U 99025EMD 25347.15017863  .00001777  00000+0  60059-3 0  9991", "line2": "2 37712  98.8182 126.1751 0079193 352.3974 185.3639 14.36430544639662"}}, "geometry": {"type": "Point", "coordinates": [-50.219629149241406, 13.345812877071554]}}, {"type": "Feature", "properties": {"norad_id": 37714, "name": "FENGYUN 1C DEB", "group": "fengyun-1c-debris", "lat": 34.16626548048138, "lon": 94.25631078506566, "alt_km": 756.9821108554688, "timestamp": "2025-12-14T14:39:29.660006+00:00", "meta": {"OBJECT_NAME": "FENGYUN 1C DEB", "OBJECT_ID": "1999-025EMF", "EPOCH": "2025-12-09T13:46:38.631072", "MEAN_MOTION": 14.32176518, "ECCENTRICITY": 0.0048599, "INCLINATION": 98.8929, "RA_OF_ASC_NODE": 95.1946, "ARG_OF_PERICENTER": 93.8012, "MEAN_ANOMALY": 266.8729, "EPHEMERIS_TYPE": 0, "CLASSIFICATION_TYPE": "U", "NORAD_CAT_ID": 37714, "ELEMENT_SET_NO": 999, "REV_AT_EPOCH": 57464, "BSTAR": 0.0030577, "MEAN_MOTION_DOT": 8.305e-05, "MEAN_MOTION_DDOT": 0}, "tle": {"line1": "1 37714U 99025EMF 25343.57405823  .00008305  00000+0  30577-2 0  9997", "line2": "2 37714  98.8929  95.1946 0048599  93.8012 266.8729 14.32176518574645"}}, "geometry": {"type": "Point", "coordinates": [94.25631078506566, 34.16626548048138]}}, {"type": "Feature", "properties": {"norad_id": 37715, "name": "FENGYUN 1C DEB", "group": "fengyun-1c-debris", "lat": -48.95078222207072, "lon": 6.7558562009335725, "alt_km": 993.0091269563936, "timestamp": "2025-12-14T14:39:29.660016+00:00", "meta": {"OBJECT_NAME": "FENGYUN 1C DEB", "OBJECT_ID": "1999-025EMG", "EPOCH": "2025-12-13T19:06:33.123744", "MEAN_MOTION": 13.95416087, "ECCENTRICITY": 0.01145472, "INCLINATION": 98.9565, "RA_OF_ASC_NODE": 355.5304, "ARG_OF_PERICENTER": 109.1874, "MEAN_ANOMALY": 72.0247, "EPHEMERIS_TYPE": 0, "CLASSIFICATION_TYPE": "U", "NORAD_CAT_ID": 37715, "ELEMENT_SET_NO": 999, "REV_AT_EPOCH": 57818, "BSTAR": 0.00070299707, "MEAN_MOTION_DOT": 9.65e-06, "MEAN_MOTION_DDOT": 0}, "tle": {"line1": "1 37715U 99025EMG 25347.79621671  .00000965  00000+0  70300-3 0  9990", "line2": "2 37715  98.9565 355.5304 0114547 109.1874  72.0247 13.95416087578189"}}, "geometry": {"type": "Point", "coordinates": [6.7558562009335725, -48.95078222207072]}}]}